[
  {
    "name": "KUIPER-00057",
    "noradId": "64517",
    "line1": "1 64517U 25134T   26148.55454435  .00000841  00000+0  13935-3 0  9990",
    "line2": "2 64517  51.8980 237.4125 0000498  88.8382 271.2637 14.79929714 51937"
  },
  {
    "name": "KUIPER-00058",
    "noradId": "64518",
    "line1": "1 64518U 25134U   26148.52616875  .00002839  00000+0  40118-3 0  9998",
    "line2": "2 64518  51.9004 232.5035 0000384  97.9261 262.1745 14.79938446 52003"
  },
  {
    "name": "KUIPER-00059",
    "noradId": "64519",
    "line1": "1 64519U 25134V   26148.53155554  .00004205  00000+0  58028-3 0  9990",
    "line2": "2 64519  51.8993 227.5240 0000563  88.0793 272.0234 14.79931628 52077"
  },
  {
    "name": "KUIPER-00060",
    "noradId": "64520",
    "line1": "1 64520U 25134W   26148.49780605  .00001307  00000+0  20051-3 0  9993",
    "line2": "2 64520  51.9022 227.7265 0000512  96.6677 263.4343 14.79921940 52051"
  },
  {
    "name": "KUIPER-00061",
    "noradId": "64521",
    "line1": "1 64521U 25134X   26148.45560765  .00004650  00000+0  63913-3 0  9991",
    "line2": "2 64521  51.9005 235.3685 0000090 136.5662 223.5307 14.79888045 51945"
  },
  {
    "name": "KUIPER-00062",
    "noradId": "64522",
    "line1": "1 64522U 25134Y   26148.52078312  .00001784  00000+0  26299-3 0  9993",
    "line2": "2 64522  51.8963 237.5788 0000522 127.9545 232.1465 14.79932196 51937"
  },
  {
    "name": "KUIPER-00063",
    "noradId": "64523",
    "line1": "1 64523U 25134Z   26148.51268457  .00002400  00000+0  34375-3 0  9994",
    "line2": "2 64523  51.9019 245.1426 0000586  98.1617 261.9412 14.79924763 51825"
  },
  {
    "name": "KUIPER-00064",
    "noradId": "64524",
    "line1": "1 64524U 25134AA  26148.51538523  .00000712  00000+0  12244-3 0  9994",
    "line2": "2 64524  51.9023 242.5531 0000476  88.6572 271.4445 14.79929869 51869"
  },
  {
    "name": "KUIPER-00065",
    "noradId": "64525",
    "line1": "1 64525U 25134AB  26148.51000953  .00002933  00000+0  41346-3 0  9998",
    "line2": "2 64525  51.9036 247.7433 0000551  98.6860 261.4165 14.79938346 51775"
  },
  {
    "name": "KUIPER-00066",
    "noradId": "64526",
    "line1": "1 64526U 25134AC  26148.47609858 -.00000055  00000+0  21775-4 0  9992",
    "line2": "2 64526  51.9012 185.1799 0000375  12.5504 347.5467 14.79929718 52667"
  },
  {
    "name": "KUIPER-00069",
    "noradId": "64816",
    "line1": "1 64816U 25151A   26148.53438753  .00001558  00000+0  23333-3 0  9993",
    "line2": "2 64816  51.9026 287.5622 0000526 108.2096 251.8923 14.79932559 48580"
  },
  {
    "name": "KUIPER-00070",
    "noradId": "64817",
    "line1": "1 64817U 25151B   26148.47340660  .00004894  00000+0  66925-3 0  9996",
    "line2": "2 64817  51.9002 312.7505 0000615 134.6819 225.4194 14.80009041 48233"
  },
  {
    "name": "KUIPER-00071",
    "noradId": "64818",
    "line1": "1 64818U 25151C   26148.47635194  .00001421  00000+0  21534-3 0  9996",
    "line2": "2 64818  51.9004 310.2729 0000648 106.7544 253.3489 14.79931230 47089"
  },
  {
    "name": "KUIPER-00072",
    "noradId": "64819",
    "line1": "1 64819U 25151D   26147.65377769 -.00000566  00000+0 -45194-4 0  9997",
    "line2": "2 64819  51.8983 293.8700 0000558  90.8177 269.2849 14.79936095 47243"
  },
  {
    "name": "KUIPER-00073",
    "noradId": "64820",
    "line1": "1 64820U 25151E   26148.44258728  .00002256  00000+0  32481-3 0  9990",
    "line2": "2 64820  51.9018 310.4102 0000754 105.1722 254.9324 14.79932014 48260"
  },
  {
    "name": "KUIPER-00074",
    "noradId": "64821",
    "line1": "1 64821U 25151F   26148.50002315  .00077796  00000+0  37926-3 0  9997",
    "line2": "2 64821  51.8907 247.1624 0008140 315.9007 214.0225 15.81631179  1309"
  },
  {
    "name": "KUIPER-00075",
    "noradId": "64822",
    "line1": "1 64822U 25151G   26148.38532523  .00051004  00000+0  11024-2 0  9997",
    "line2": "2 64822  51.8673 193.1988 0003081 201.5547 158.5313 15.43995199 48709"
  },
  {
    "name": "KUIPER-00076",
    "noradId": "64823",
    "line1": "1 64823U 25151H   26148.45336812  .00002137  00000+0  30917-3 0  9995",
    "line2": "2 64823  51.9014 300.3781 0000895 134.2822 225.8214 14.79938916 47227"
  },
  {
    "name": "KUIPER-00077",
    "noradId": "64824",
    "line1": "1 64824U 25151J   26148.17785333  .00003453  00000+0  48161-3 0  9993",
    "line2": "2 64824  51.9016 306.6132 0000409 116.5769 243.5235 14.79940742 47111"
  },
  {
    "name": "KUIPER-00078",
    "noradId": "64825",
    "line1": "1 64825U 25151K   26148.41690720  .00001968  00000+0  28704-3 0  9996",
    "line2": "2 64825  51.9009 303.0375 0000749 104.1286 255.9760 14.79931489 47183"
  },
  {
    "name": "KUIPER-00079",
    "noradId": "64826",
    "line1": "1 64826U 25151L   26148.44527576  .00002422  00000+0  34655-3 0  9996",
    "line2": "2 64826  51.9012 307.8798 0001139  81.8618 278.2474 14.79935441 48311"
  },
  {
    "name": "KUIPER-00080",
    "noradId": "64827",
    "line1": "1 64827U 25151M   26148.41151801  .00000928  00000+0  15067-3 0  9993",
    "line2": "2 64827  51.9002 308.0372 0000696 116.3407 243.7627 14.79928884 47116"
  },
  {
    "name": "KUIPER-00082",
    "noradId": "64828",
    "line1": "1 64828U 25151N   26147.85095223  .00005273  00000+0  71964-3 0  9992",
    "line2": "2 64828  51.9011 298.0596 0000554 114.5592 245.5429 14.79965447 47207"
  },
  {
    "name": "KUIPER-00083",
    "noradId": "64829",
    "line1": "1 64829U 25151P   26148.45066777  .00002454  00000+0  35087-3 0  9996",
    "line2": "2 64829  51.9005 302.8931 0000635 124.2170 235.8853 14.79924691 48376"
  },
  {
    "name": "KUIPER-00084",
    "noradId": "64830",
    "line1": "1 64830U 25151Q   26148.43988249  .00001791  00000+0  26391-3 0  9994",
    "line2": "2 64830  51.9012 312.9255 0000469  98.5103 261.5912 14.79929928 47044"
  },
  {
    "name": "KUIPER-00085",
    "noradId": "64831",
    "line1": "1 64831U 25151R   26148.42500332  .00001743  00000+0  25753-3 0  9995",
    "line2": "2 64831  51.9026 295.5594 0000828 122.1898 237.9145 14.79936936 47284"
  },
  {
    "name": "KUIPER-00086",
    "noradId": "64832",
    "line1": "1 64832U 25151S   26148.14409427  .00004105  00000+0  56704-3 0  9993",
    "line2": "2 64832  51.9021 306.7592 0000593 110.6206 249.4820 14.79939518 47105"
  },
  {
    "name": "KUIPER-00087",
    "noradId": "64833",
    "line1": "1 64833U 25151T   26147.69025427  .00002264  00000+0  32589-3 0  9996",
    "line2": "2 64833  51.8996 291.2362 0000621 106.7011 253.4020 14.79939312 47278"
  },
  {
    "name": "KUIPER-00089",
    "noradId": "64834",
    "line1": "1 64834U 25151U   26148.42769316  .00000756  00000+0  12822-3 0  9993",
    "line2": "2 64834  51.8995 292.9887 0001117 103.8208 256.2878 14.79938494 47323"
  },
  {
    "name": "KUIPER-00090",
    "noradId": "64835",
    "line1": "1 64835U 25151V   26147.82801608  .00003370  00000+0  47079-3 0  9995",
    "line2": "2 64835  51.8987 288.1585 0000581 124.2158 235.8860 14.79938142 47337"
  },
  {
    "name": "KUIPER-00091",
    "noradId": "64836",
    "line1": "1 64836U 25151W   26148.43034667  .00009544  00000+0  12792-2 0  9999",
    "line2": "2 64836  51.9012 290.4915 0000912   6.7832 353.3142 14.79929620 47354"
  },
  {
    "name": "KUIPER-00092",
    "noradId": "64837",
    "line1": "1 64837U 25151X   26148.42230324  .00001931  00000+0  28220-3 0  9993",
    "line2": "2 64837  51.9020 298.0245 0000559  84.0775 276.0251 14.79936469 48460"
  },
  {
    "name": "KUIPER-00093",
    "noradId": "64838",
    "line1": "1 64838U 25151Y   26148.41956765  .00002283  00000+0  32848-3 0  9999",
    "line2": "2 64838  51.9001 300.5096 0000588 108.5414 251.5612 14.79916271 47217"
  },
  {
    "name": "KUIPER-00094",
    "noradId": "64839",
    "line1": "1 64839U 25151Z   26148.50002315 -.00033077  00000+0 -31493-2 0  9994",
    "line2": "2 64839  51.8957 255.7055 0004345 212.5976  93.9597 14.92883862  5080"
  },
  {
    "name": "KUIPER-00081",
    "noradId": "65132",
    "line1": "1 65132U 25171A   26148.27211529  .00002294  00000+0  32972-3 0  9995",
    "line2": "2 65132  51.8992 156.1589 0000371  59.8819 300.2181 14.79938955 44822"
  },
  {
    "name": "KUIPER-00088",
    "noradId": "65133",
    "line1": "1 65133U 25171B   26148.32077382  .00000651  00000+0  11441-3 0  9992",
    "line2": "2 65133  51.8977 173.4489 0000278  40.3887 319.7096 14.79932028 44581"
  },
  {
    "name": "KUIPER-00095",
    "noradId": "65134",
    "line1": "1 65134U 25171C   26148.27480661  .00002488  00000+0  35514-3 0  9992",
    "line2": "2 65134  51.8966 153.7070 0000432  71.2897 288.8112 14.79947246 44856"
  },
  {
    "name": "KUIPER-00096",
    "noradId": "65135",
    "line1": "1 65135U 25171D   26148.43015765  .00000394  00000+0  80734-4 0  9999",
    "line2": "2 65135  51.8977 165.4637 0000412  67.7395 292.3611 14.79930565 44703"
  },
  {
    "name": "KUIPER-00097",
    "noradId": "65136",
    "line1": "1 65136U 25171E   26148.35994330  .00002604  00000+0  37046-3 0  9998",
    "line2": "2 65136  51.8998 168.4202 0000324  70.0790 290.0207 14.79933748 44641"
  },
  {
    "name": "KUIPER-00098",
    "noradId": "65137",
    "line1": "1 65137U 25171F   26148.35723503  .00002652  00000+0  37668-3 0  9994",
    "line2": "2 65137  51.8989 170.8019 0000391  60.8702 299.2299 14.79934458 43964"
  },
  {
    "name": "KUIPER-00099",
    "noradId": "65138",
    "line1": "1 65138U 25171G   26148.33426779  .00002520  00000+0  35926-3 0  9997",
    "line2": "2 65138  51.9007 160.9010 0000614  49.5720 310.5296 14.79956557 44756"
  },
  {
    "name": "KUIPER-00100",
    "noradId": "65139",
    "line1": "1 65139U 25171H   26148.43824602  .00002651  00000+0  37658-3 0  9995",
    "line2": "2 65139  51.8992 157.9146 0000399  65.5949 294.5055 14.79933002 44806"
  },
  {
    "name": "KUIPER-00102",
    "noradId": "65140",
    "line1": "1 65140U 25171J   26148.30047682  .00002682  00000+0  38068-3 0  9998",
    "line2": "2 65140  51.8968 161.0252 0000395  79.1869 280.9138 14.79927675 44746"
  }
]